ANDESITE                
1 45726U 20037D   26068.46720933  .00004478  00000+0  31876-3 0  9992
2 45726  97.7890 260.5174 0009953 141.6473 218.5462 15.05115692310662
STARLINK-5755           
1 55600U 23020AH  26067.21131571  .00001324  00000+0  11301-3 0  9993
2 55600  43.0059 359.9807 0001061 282.3198  77.7525 15.02545506168844
